     2              NAVIGATION DATA                         RINEX VERSION / TYPE
CCRINEXN V1.6.0 UX  CDDIS               27-JAN-22 18:31     PGM / RUN BY / DATE 
IGS BROADCAST EPHEMERIS FILE                                COMMENT             
    0.1211D-07 -0.7451D-08 -0.5960D-07  0.5960D-07          ION ALPHA           
    0.1147D+06 -0.1311D+06 -0.2621D+06  0.7209D+06          ION BETA            
   -0.465661287308D-08-0.115463194561D-13   503808     2194 DELTA-UTC: A0,A1,T,W
    18                                                      LEAP SECONDS        
                                                            END OF HEADER       
23 22  1 26 20 44 32.0 0.726524740457D-05-0.375166564481D-11 0.000000000000D+00
    0.232000000000D+03-0.370312500000D+02 0.419946063868D-08-0.209007164209D+01
   -0.186078250408D-05 0.197508407291D-02 0.939704477787D-05 0.515369927978D+04
    0.333872000000D+06-0.558793544769D-08-0.528275038102D+00-0.558793544769D-08
    0.967407935464D+00 0.203562500000D+03 0.293987907491D+01-0.780746806953D-08
    0.447875798682D-09 0.100000000000D+01 0.219400000000D+04 0.000000000000D+00
    0.200000000000D+01 0.000000000000D+00-0.838190317154D-08 0.488000000000D+03
    0.326718000000D+06 0.400000000000D+01 0.000000000000D+00 0.000000000000D+00
10 22  1 26 21 59 44.0-0.303816050291D-03-0.989075488178D-11 0.000000000000D+00
    0.900000000000D+01-0.405937500000D+02 0.407516974718D-08-0.276227597344D+01
   -0.214390456677D-05 0.748097500764D-02 0.946410000324D-05 0.515367883301D+04
    0.338384000000D+06 0.391155481338D-07-0.503559945624D+00-0.104308128357D-06
    0.972373091128D+00 0.203968750000D+03-0.252782827879D+01-0.765710466343D-08
    0.445732852277D-09 0.100000000000D+01 0.219400000000D+04 0.000000000000D+00
    0.200000000000D+01 0.000000000000D+00 0.232830643654D-08 0.900000000000D+01
    0.331218000000D+06 0.400000000000D+01 0.000000000000D+00 0.000000000000D+00
13 22  1 26 21 59 44.0 0.251684337854D-03 0.602540239925D-11 0.000000000000D+00
    0.100000000000D+01-0.155000000000D+02 0.462519265784D-08 0.940897232466D+00
   -0.894069671631D-06 0.580570159946D-02 0.729598104954D-05 0.515366841507D+04
    0.338384000000D+06-0.428408384323D-07 0.679807398947D+00 0.484287738800D-07
    0.968579269100D+00 0.242343750000D+03 0.967715315033D+00-0.808105089392D-08
   -0.835749098019D-10 0.100000000000D+01 0.219400000000D+04 0.000000000000D+00
    0.200000000000D+01 0.000000000000D+00-0.111758708954D-07 0.100000000000D+01
    0.331837000000D+06 0.400000000000D+01 0.000000000000D+00 0.000000000000D+00
22 22  1 26 21 59 44.0 0.204418785870D-03 0.557065504836D-11 0.000000000000D+00
    0.107000000000D+03-0.160937500000D+02 0.482270088485D-08 0.130523022143D+01
   -0.888481736183D-06 0.127775679575D-01 0.706128776074D-05 0.515364377785D+04
    0.338384000000D+06-0.296160578728D-06 0.628382750481D+00-0.106170773506D-06
    0.961308706686D+00 0.244250000000D+03-0.187603747853D+01-0.829105964163D-08
    0.457161899771D-10 0.100000000000D+01 0.219400000000D+04 0.000000000000D+00
    0.200000000000D+01 0.000000000000D+00-0.977888703346D-08 0.107000000000D+03
    0.337206000000D+06 0.400000000000D+01 0.000000000000D+00 0.000000000000D+00
31 22  1 26 21 59 44.0-0.161818228662D-03-0.181898940355D-11 0.000000000000D+00
    0.170000000000D+02 0.145000000000D+02 0.467519474063D-08-0.186103038357D+01
    0.439584255218D-06 0.104687446728D-01 0.101178884506D-04 0.515368088150D+04
    0.338384000000D+06 0.130385160446D-07 0.161739284382D+01-0.139698386192D-06
    0.954855495621D+00 0.178437500000D+03 0.369719587916D+00-0.796211736843D-08
   -0.156435087578D-09 0.100000000000D+01 0.219400000000D+04 0.000000000000D+00
    0.200000000000D+01 0.000000000000D+00-0.135041773319D-07 0.170000000000D+02
    0.331218000000D+06 0.400000000000D+01 0.000000000000D+00 0.000000000000D+00
32 22  1 26 21 59 44.0-0.570355914533D-04-0.636646291241D-11 0.000000000000D+00
    0.100000000000D+02-0.118125000000D+02 0.480662878681D-08 0.215023320744D+01
   -0.528991222382D-06 0.546856038272D-02 0.694207847118D-05 0.515376108551D+04
    0.338384000000D+06-0.135973095894D-06 0.538408623360D+00-0.109896063805D-06
    0.958053750533D+00 0.242312500000D+03-0.236875678864D+01-0.812355266429D-08
    0.157863718515D-09 0.100000000000D+01 0.219400000000D+04 0.000000000000D+00
    0.200000000000D+01 0.000000000000D+00 0.465661287308D-09 0.100000000000D+02
    0.332148000000D+06 0.400000000000D+01 0.000000000000D+00 0.000000000000D+00
 1 22  1 26 22  0  0.0 0.447129830718D-03-0.966338120634D-11 0.000000000000D+00
    0.360000000000D+02-0.755312500000D+02 0.388980488313D-08-0.742358245995D+00
   -0.395998358727D-05 0.113051508088D-01 0.720471143722D-05 0.515367379189D+04
    0.338400000000D+06 0.335276126862D-07-0.153622388895D+01 0.230967998505D-06
    0.986520238951D+00 0.253000000000D+03 0.881976482043D+00-0.799319009131D-08
   -0.168221292806D-09 0.100000000000D+01 0.219400000000D+04 0.000000000000D+00
    0.200000000000D+01 0.000000000000D+00 0.512227416039D-08 0.360000000000D+02
    0.331218000000D+06 0.400000000000D+01 0.000000000000D+00 0.000000000000D+00
 2 22  1 26 22  0  0.0-0.649579335004D-03-0.909494701773D-12 0.000000000000D+00
    0.390000000000D+02-0.810000000000D+02 0.443054169270D-08-0.585687774532D+00
   -0.426732003689D-05 0.206768206553D-01 0.811181962490D-05 0.515368494034D+04
    0.338400000000D+06-0.240281224251D-06-0.162512025507D+01 0.108033418655D-06
    0.964859747218D+00 0.230500000000D+03-0.145194922338D+01-0.850606859761D-08
   -0.332156692802D-10 0.100000000000D+01 0.219400000000D+04 0.000000000000D+00
    0.200000000000D+01 0.000000000000D+00-0.176951289177D-07 0.390000000000D+02
    0.333192000000D+06 0.400000000000D+01 0.000000000000D+00 0.000000000000D+00
 3 22  1 26 22  0  0.0-0.944528728723D-04-0.159161572810D-10 0.000000000000D+00
    0.690000000000D+02-0.249062500000D+02 0.414552982081D-08-0.190632077222D+01
   -0.126659870148D-05 0.385197275318D-02 0.932626426220D-05 0.515369195175D+04
    0.338400000000D+06 0.353902578354D-07-0.500764560797D+00-0.819563865662D-07
    0.972543212408D+00 0.207218750000D+03 0.970388385280D+00-0.777603818892D-08
    0.340014162955D-09 0.100000000000D+01 0.219400000000D+04 0.000000000000D+00
    0.280000000000D+01 0.000000000000D+00 0.186264514923D-08 0.690000000000D+02
    0.331218000000D+06 0.400000000000D+01 0.000000000000D+00 0.000000000000D+00
 4 22  1 26 22  0  0.0-0.192991923541D-03 0.193267624127D-11 0.000000000000D+00
    0.810000000000D+02-0.156562500000D+02 0.475698386176D-08 0.107001399008D+01
   -0.759959220886D-06 0.166943995282D-02 0.693462789059D-05 0.515365280533D+04
    0.338400000000D+06 0.000000000000D+00 0.580087165290D+00 0.111758708954D-07
    0.961179956729D+00 0.245656250000D+03-0.309438635866D+01-0.812891003030D-08
    0.264296723305D-10 0.100000000000D+01 0.219400000000D+04 0.000000000000D+00
    0.200000000000D+01 0.000000000000D+00-0.419095158577D-08 0.337000000000D+03
    0.331218000000D+06 0.400000000000D+01 0.000000000000D+00 0.000000000000D+00
 5 22  1 26 22  0  0.0-0.692754983902D-04-0.136424205266D-11 0.000000000000D+00
    0.630000000000D+02-0.308437500000D+02 0.451983112625D-08 0.190647010397D+01
   -0.166147947311D-05 0.586641265545D-02 0.927597284317D-05 0.515365397072D+04
    0.338400000000D+06-0.409781932831D-07-0.540896068321D+00-0.651925802231D-07
    0.959516779794D+00 0.202375000000D+03 0.101196714011D+01-0.800426198107D-08
    0.417160233541D-09 0.100000000000D+01 0.219400000000D+04 0.000000000000D+00
    0.200000000000D+01 0.000000000000D+00-0.111758708954D-07 0.630000000000D+02
    0.331249000000D+06 0.400000000000D+01 0.000000000000D+00 0.000000000000D+00
 6 22  1 26 22  0  0.0 0.182588584721D-03 0.113686837722D-10 0.000000000000D+00
    0.550000000000D+02-0.850000000000D+02 0.379301513716D-08-0.387847605009D+00
   -0.443682074547D-05 0.265315501019D-02 0.827573239803D-05 0.515366062737D+04
    0.338400000000D+06-0.614672899246D-07-0.154449799123D+01-0.316649675369D-07
    0.985901610394D+00 0.234593750000D+03-0.985232342927D+00-0.782925469131D-08
   -0.123219418298D-09 0.100000000000D+01 0.219400000000D+04 0.000000000000D+00
    0.200000000000D+01 0.000000000000D+00 0.372529029846D-08 0.550000000000D+02
    0.331218000000D+06 0.400000000000D+01 0.000000000000D+00 0.000000000000D+00
 7 22  1 26 22  0  0.0 0.305335037410D-03 0.329691829393D-11 0.000000000000D+00
    0.200000000000D+02 0.272187500000D+02 0.473448292450D-08-0.140781272599D+01
    0.145100057125D-05 0.154667198658D-01 0.919774174690D-05 0.515369763947D+04
    0.338400000000D+06 0.389292836189D-06 0.159937260722D+01 0.614672899246D-07
    0.950619591453D+00 0.191687500000D+03-0.229374169815D+01-0.793854495798D-08
   -0.186793494985D-09 0.100000000000D+01 0.219400000000D+04 0.000000000000D+00
    0.200000000000D+01 0.000000000000D+00-0.111758708954D-07 0.200000000000D+02
    0.331218000000D+06 0.400000000000D+01 0.000000000000D+00 0.000000000000D+00
 8 22  1 26 22  0  0.0-0.537228770554D-04-0.147792889038D-11 0.000000000000D+00
    0.430000000000D+02 0.174375000000D+02 0.464305054455D-08 0.154316011607D+01
    0.115483999252D-05 0.720180163626D-02 0.320561230183D-05 0.515371523094D+04
    0.338400000000D+06 0.968575477600D-07-0.261582462552D+01 0.108033418655D-06
    0.965147380319D+00 0.318500000000D+03 0.896721574224D-01-0.841106464032D-08
   -0.183579075377D-09 0.100000000000D+01 0.219400000000D+04 0.000000000000D+00
    0.280000000000D+01 0.000000000000D+00 0.512227416039D-08 0.430000000000D+02
    0.331218000000D+06 0.400000000000D+01 0.000000000000D+00 0.000000000000D+00
